{
    "links": {
        "self": "http://www.neowsapp.com/rest/v1/neo/3799261?api_key=iIulBulltgU6a56xZRHN4H3l9WmuAYTsLGpBGhQ2"
    },
    "id": "3799261",
    "neo_reference_id": "3799261",
    "name": "(2018 BJ7)",
    "designation": "2018 BJ7",
    "nasa_jpl_url": "http://ssd.jpl.nasa.gov/sbdb.cgi?sstr=3799261",
    "absolute_magnitude_h": 24.1,
    "estimated_diameter": {
        "kilometers": {
            "estimated_diameter_min": 0.040230458,
            "estimated_diameter_max": 0.0899580388
        },
        "meters": {
            "estimated_diameter_min": 40.2304579834,
            "estimated_diameter_max": 89.9580388169
        },
        "miles": {
            "estimated_diameter_min": 0.0249980399,
            "estimated_diameter_max": 0.0558973165
        },
        "feet": {
            "estimated_diameter_min": 131.9896957704,
            "estimated_diameter_max": 295.1379320721
        }
    },
    "is_potentially_hazardous_asteroid": false,
    "close_approach_data": [
        {
            "close_approach_date": "2018-02-20",
            "close_approach_date_full": "2018-Feb-20 23:43",
            "epoch_date_close_approach": 1519170180000,
            "relative_velocity": {
                "kilometers_per_second": "11.3484031348",
                "kilometers_per_hour": "40854.2512854244",
                "miles_per_hour": "25385.2429723238"
            },
            "miss_distance": {
                "astronomical": "0.0556363689",
                "lunar": "21.6425475021",
                "kilometers": "8323082.281974243",
                "miles": "5171723.5140128334"
            },
            "orbiting_body": "Earth"
        },
        {
            "close_approach_date": "2058-05-04",
            "close_approach_date_full": "2058-May-04 02:42",
            "epoch_date_close_approach": 2787705720000,
            "relative_velocity": {
                "kilometers_per_second": "6.5207513629",
                "kilometers_per_hour": "23474.7049062645",
                "miles_per_hour": "14586.268723562"
            },
            "miss_distance": {
                "astronomical": "0.9522453294",
                "lunar": "370.4234331366",
                "kilometers": "142453872.995688378",
                "miles": "88516732.1041124964"
            },
            "orbiting_body": "Juptr"
        }
    ],
    "orbital_data": {
        "orbit_id": "5",
        "orbit_determination_date": "2018-02-28 06:22:16",
        "first_observation_date": "2018-01-16",
        "last_observation_date": "2018-02-27",
        "data_arc_in_days": 42,
        "observations_used": 56,
        "orbit_uncertainty": "7",
        "minimum_orbit_intersection": ".030376",
        "jupiter_tisserand_invariant": "3.073",
        "epoch_osculation": "2459000.5",
        "eccentricity": ".6336915791727619",
        "semi_major_axis": "2.637928002326736",
        "inclination": "2.75521007489674",
        "ascending_node_longitude": "122.9529284920865",
        "orbital_period": "1564.922497120892",
        "perihelion_distance": ".9662952407882575",
        "perihelion_argument": "61.59821493522389",
        "aphelion_distance": "4.309560763865214",
        "perihelion_time": "2459758.785470450262",
        "mean_anomaly": "185.5614767732449",
        "mean_motion": ".2300433412276452",
        "equinox": "J2000",
        "orbit_class": {
            "orbit_class_type": "APO",
            "orbit_class_description": "Near-Earth asteroid orbits which cross the Earth’s orbit similar to that of 1862 Apollo",
            "orbit_class_range": "a (semi-major axis) > 1.0 AU; q (perihelion) < 1.017 AU"
        }
    },
    "is_sentry_object": false
}